{"type": "FeatureCollection", "features": [ {"type": "Feature", "properties": {"norad_id": 31093, "name": "FENGYUN 1C DEB", "group": "fengyun-1c-debris", "lat": -57.22117209113528, "lon": -163.711812243654, "alt_km": 912.5827931100303, "timestamp": "2025-12-09T09:46:47.926439+00:00", "meta": {"OBJECT_NAME": "FENGYUN 1C DEB", "OBJECT_ID": "1999-025BGP", "EPOCH": "2025-12-08T20:08:55.292640", "MEAN_MOTION": 13.80626814, "ECCENTRICITY": 0.02081622, "INCLINATION": 98.595, "RA_OF_ASC_NODE": 182.1873, "ARG_OF_PERICENTER": 233.7877, "MEAN_ANOMALY": 124.3874, "EPHEMERIS_TYPE": 0, "CLASSIFICATION_TYPE": "U", "NORAD_CAT_ID": 31093, "ELEMENT_SET_NO": 999, "REV_AT_EPOCH": 94453, "BSTAR": 0.00079621751, "MEAN_MOTION_DOT": 9.44e-06, "MEAN_MOTION_DDOT": 0}, "tle": {"line1": "1 31093U 99025BGP 25342.83952885  .00000944  00000+0  79622-3 0  9990", "line2": "2 31093  98.5950 182.1873 0208162 233.7877 124.3874 13.80626814944533"}}, "geometry": {"type": "Point", "coordinates": [-163.711812243654, -57.22117209113528]}}, {"type": "Feature", "properties": {"norad_id": 31094, "name": "FENGYUN 1C DEB", "group": "fengyun-1c-debris", "lat": 11.050430799620036, "lon": 33.10077474195488, "alt_km": 917.0566342865823, "timestamp": "2025-12-09T09:46:47.926450+00:00", "meta": {"OBJECT_NAME": "FENGYUN 1C DEB", "OBJECT_ID": "1999-025BGQ", "EPOCH": "2025-12-08T14:08:52.126944", "MEAN_MOTION": 14.02016098, "ECCENTRICITY": 0.0106392, "INCLINATION": 98.8553, "RA_OF_ASC_NODE": 210.5616, "ARG_OF_PERICENTER": 58.4513, "MEAN_ANOMALY": 302.6991, "EPHEMERIS_TYPE": 0, "CLASSIFICATION_TYPE": "U", "NORAD_CAT_ID": 31094, "ELEMENT_SET_NO": 999, "REV_AT_EPOCH": 95561, "BSTAR": 0.002178, "MEAN_MOTION_DOT": 3.45e-05, "MEAN_MOTION_DDOT": 0}, "tle": {"line1": "1 31094U 99025BGQ 25342.58949221  .00003450  00000+0  21780-2 0  9999", "line2": "2 31094  98.8553 210.5616 0106392  58.4513 302.6991 14.02016098955612"}}, "geometry": {"type": "Point", "coordinates": [33.10077474195488, 11.050430799620036]}}, {"type": "Feature", "properties": {"norad_id": 31095, "name": "FENGYUN 1C DEB", "group": "fengyun-1c-debris", "lat": -32.597855576554316, "lon": 132.04432890783107, "alt_km": 1460.0421357838568, "timestamp": "2025-12-09T09:46:47.926461+00:00", "meta": {"OBJECT_NAME": "FENGYUN 1C DEB", "OBJECT_ID": "1999-025BGR", "EPOCH": "2025-12-08T15:35:04.204608", "MEAN_MOTION": 13.06663599, "ECCENTRICITY": 0.0499911, "INCLINATION": 98.5613, "RA_OF_ASC_NODE": 125.9096, "ARG_OF_PERICENTER": 201.6518, "MEAN_ANOMALY": 156.2777, "EPHEMERIS_TYPE": 0, "CLASSIFICATION_TYPE": "U", "NORAD_CAT_ID": 31095, "ELEMENT_SET_NO": 999, "REV_AT_EPOCH": 89394, "BSTAR": 0.00053813, "MEAN_MOTION_DOT": 2.95e-06, "MEAN_MOTION_DDOT": 0}, "tle": {"line1": "1 31095U 99025BGR 25342.64935422  .00000295  00000+0  53813-3 0  9992", "line2": "2 31095  98.5613 125.9096 0499911 201.6518 156.2777 13.06663599893946"}}, "geometry": {"type": "Point", "coordinates": [132.04432890783107, -32.597855576554316]}}, {"type": "Feature", "properties": {"norad_id": 31097, "name": "FENGYUN 1C DEB", "group": "fengyun-1c-debris", "lat": 31.458452104627973, "lon": 100.55397554907721, "alt_km": 737.8376105211728, "timestamp": "2025-12-09T09:46:47.926472+00:00", "meta": {"OBJECT_NAME": "FENGYUN 1C DEB", "OBJECT_ID": "1999-025BGT", "EPOCH": "2025-12-07T20:09:25.877376", "MEAN_MOTION": 14.46841701, "ECCENTRICITY": 0.00148051, "INCLINATION": 98.8598, "RA_OF_ASC_NODE": 104.3909, "ARG_OF_PERICENTER": 285.2714, "MEAN_ANOMALY": 225.9611, "EPHEMERIS_TYPE": 0, "CLASSIFICATION_TYPE": "U", "NORAD_CAT_ID": 31097, "ELEMENT_SET_NO": 999, "REV_AT_EPOCH": 96967, "BSTAR": 0.0047024145, "MEAN_MOTION_DOT": 0.00017064, "MEAN_MOTION_DDOT": 0}, "tle": {"line1": "1 31097U 99025BGT 25341.83988284  .00017064  00000+0  47024-2 0  9996", "line2": "2 31097  98.8598 104.3909 0014805 285.2714 225.9611 14.46841701969671"}}, "geometry": {"type": "Point", "coordinates": [100.55397554907721, 31.458452104627973]}}, {"type": "Feature", "properties": {"norad_id": 31098, "name": "FENGYUN 1C DEB", "group": "fengyun-1c-debris", "lat": -25.16925032005452, "lon": -83.03288316291909, "alt_km": 720.4614217947556, "timestamp": "2025-12-09T09:46:47.926482+00:00", "meta": {"OBJECT_NAME": "FENGYUN 1C DEB", "OBJECT_ID": "1999-025BGU", "EPOCH": "2025-12-08T19:35:55.473792", "MEAN_MOTION": 14.51362326, "ECCENTRICITY": 0.0014562, "INCLINATION": 98.8694, "RA_OF_ASC_NODE": 100.5521, "ARG_OF_PERICENTER": 260.1691, "MEAN_ANOMALY": 99.7859, "EPHEMERIS_TYPE": 0, "CLASSIFICATION_TYPE": "U", "NORAD_CAT_ID": 31098, "ELEMENT_SET_NO": 999, "REV_AT_EPOCH": 96900, "BSTAR": 0.0054318307, "MEAN_MOTION_DOT": 0.00021697, "MEAN_MOTION_DDOT": 0}, "tle": {"line1": "1 31098U 99025BGU 25342.81661428  .00021697  00000+0  54318-2 0  9995", "line2": "2 31098  98.8694 100.5521 0014562 260.1691  99.7859 14.51362326969008"}}, "geometry": {"type": "Point", "coordinates": [-83.03288316291909, -25.16925032005452]}}, {"type": "Feature", "properties": {"norad_id": 31099, "name": "FENGYUN 1C DEB", "group": "fengyun-1c-debris", "lat": -45.1528274619067, "lon": -115.08659890986537, "alt_km": 763.8583878695435, "timestamp": "2025-12-09T09:46:47.926492+00:00", "meta": {"OBJECT_NAME": "FENGYUN 1C DEB", "OBJECT_ID": "1999-025BGV", "EPOCH": "2025-12-08T15:38:03.350688", "MEAN_MOTION": 14.27913057, "ECCENTRICITY": 0.00627764, "INCLINATION": 98.9384, "RA_OF_ASC_NODE": 235.0361, "ARG_OF_PERICENTER": 293.4481, "MEAN_ANOMALY": 96.1072, "EPHEMERIS_TYPE": 0, "CLASSIFICATION_TYPE": "U", "NORAD_CAT_ID": 31099, "ELEMENT_SET_NO": 999, "REV_AT_EPOCH": 97413, "BSTAR": 0.00060689987, "MEAN_MOTION_DOT": 1.488e-05, "MEAN_MOTION_DDOT": 0}, "tle": {"line1": "1 31099U 99025BGV 25342.65142767  .00001488  00000+0  60690-3 0  9995", "line2": "2 31099  98.9384 235.0361 0062776 293.4481  96.1072 14.27913057974132"}}, "geometry": {"type": "Point", "coordinates": [-115.08659890986537, -45.1528274619067]}}, {"type": "Feature", "properties": {"norad_id": 31146, "name": "FENGYUN 1C DEB", "group": "fengyun-1c-debris", "lat": 3.7047134877428407, "lon": 94.64710363783657, "alt_km": 649.3643403702117, "timestamp": "2025-12-09T09:46:47.926503+00:00", "meta": {"OBJECT_NAME": "FENGYUN 1C DEB", "OBJECT_ID": "1999-025BGY", "EPOCH": "2025-12-08T06:02:45.087072", "MEAN_MOTION": 14.27691051, "ECCENTRICITY": 0.02124416, "INCLINATION": 99.0411, "RA_OF_ASC_NODE": 272.8603, "ARG_OF_PERICENTER": 180.0267, "MEAN_ANOMALY": 180.0938, "EPHEMERIS_TYPE": 0, "CLASSIFICATION_TYPE": "U", "NORAD_CAT_ID": 31146, "ELEMENT_SET_NO": 999, "REV_AT_EPOCH": 96701, "BSTAR": 0.00063803072, "MEAN_MOTION_DOT": 1.949e-05, "MEAN_MOTION_DDOT": 0}, "tle": {"line1": "1 31146U 99025BGY 25342.25191073  .00001949  00000+0  63803-3 0  9999", "line2": "2 31146  99.0411 272.8603 0212441 180.0267 180.0938 14.27691051967015"}}, "geometry": {"type": "Point", "coordinates": [94.64710363783657, 3.7047134877428407]}}, {"type": "Feature", "properties": {"norad_id": 31148, "name": "FENGYUN 1C DEB", "group": "fengyun-1c-debris", "lat": 20.7085065941911, "lon": 52.21945080181668, "alt_km": 760.4691990404272, "timestamp": "2025-12-09T09:46:47.926514+00:00", "meta": {"OBJECT_NAME": "FENGYUN 1C DEB", "OBJECT_ID": "1999-025BHA", "EPOCH": "2025-12-08T03:06:41.549184", "MEAN_MOTION": 14.43314614, "ECCENTRICITY": 0.01367025, "INCLINATION": 98.8651, "RA_OF_ASC_NODE": 227.5072, "ARG_OF_PERICENTER": 64.2685, "MEAN_ANOMALY": 297.2543, "EPHEMERIS_TYPE": 0, "CLASSIFICATION_TYPE": "U", "NORAD_CAT_ID": 31148, "ELEMENT_SET_NO": 999, "REV_AT_EPOCH": 97464, "BSTAR": 0.0010937869, "MEAN_MOTION_DOT": 4.078e-05, "MEAN_MOTION_DDOT": 0}, "tle": {"line1": "1 31148U 99025BHA 25342.12964756  .00004078  00000+0  10938-2 0  9999", "line2": "2 31148  98.8651 227.5072 0136702  64.2685 297.2543 14.43314614974644"}}, "geometry": {"type": "Point", "coordinates": [52.21945080181668, 20.7085065941911]}}, {"type": "Feature", "properties": {"norad_id": 31150, "name": "FENGYUN 1C DEB", "group": "fengyun-1c-debris", "lat": -79.15913238374279, "lon": 45.12845983704326, "alt_km": 860.6516306184712, "timestamp": "2025-12-09T09:46:47.926524+00:00", "meta": {"OBJECT_NAME": "FENGYUN 1C DEB", "OBJECT_ID": "1999-025BHC", "EPOCH": "2025-12-08T00:27:01.581120", "MEAN_MOTION": 14.12728854, "ECCENTRICITY": 0.0015014, "INCLINATION": 98.6859, "RA_OF_ASC_NODE": 350.8176, "ARG_OF_PERICENTER": 172.7754, "MEAN_ANOMALY": 244.6918, "EPHEMERIS_TYPE": 0, "CLASSIFICATION_TYPE": "U", "NORAD_CAT_ID": 31150, "ELEMENT_SET_NO": 999, "REV_AT_EPOCH": 96230, "BSTAR": 0.00022735699, "MEAN_MOTION_DOT": 3.8e-06, "MEAN_MOTION_DDOT": 0}, "tle": {"line1": "1 31150U 99025BHC 25342.01876830  .00000380  00000+0  22736-3 0  9997", "line2": "2 31150  98.6859 350.8176 0015014 172.7754 244.6918 14.12728854962307"}}, "geometry": {"type": "Point", "coordinates": [45.12845983704326, -79.15913238374279]}}, {"type": "Feature", "properties": {"norad_id": 31151, "name": "FENGYUN 1C DEB", "group": "fengyun-1c-debris", "lat": -76.33377320165313, "lon": 30.135978042764417, "alt_km": 829.8161507981349, "timestamp": "2025-12-09T09:46:47.926534+00:00", "meta": {"OBJECT_NAME": "FENGYUN 1C DEB", "OBJECT_ID": "1999-025BHD", "EPOCH": "2025-12-06T11:24:46.806336", "MEAN_MOTION": 14.25703882, "ECCENTRICITY": 0.00567481, "INCLINATION": 99.135, "RA_OF_ASC_NODE": 345.649, "ARG_OF_PERICENTER": 42.9593, "MEAN_ANOMALY": 317.5996, "EPHEMERIS_TYPE": 0, "CLASSIFICATION_TYPE": "U", "NORAD_CAT_ID": 31151, "ELEMENT_SET_NO": 999, "REV_AT_EPOCH": 95885, "BSTAR": 0.0040904235, "MEAN_MOTION_DOT": 9.836e-05, "MEAN_MOTION_DDOT": 0}, "tle": {"line1": "1 31151U 99025BHD 25340.47554174  .00009836  00000+0  40904-2 0  9991", "line2": "2 31151  99.1350 345.6490 0056748  42.9593 317.5996 14.25703882958858"}}, "geometry": {"type": "Point", "coordinates": [30.135978042764417, -76.33377320165313]}}]}